[{"OBJECT_NAME":"STARLINK-30437","OBJECT_ID":"2023-156J","EPOCH":"2026-01-11T04:21:35.340192","MEAN_MOTION":15.30172165,"ECCENTRICITY":9.633e-5,"INCLINATION":53.1603,"RA_OF_ASC_NODE":345.3169,"ARG_OF_PERICENTER":87.5078,"MEAN_ANOMALY":272.6033,"EPHEMERIS_TYPE":0,"CLASSIFICATION_TYPE":"U","NORAD_CAT_ID":58036,"ELEMENT_SET_NO":999,"REV_AT_EPOCH":12746,"BSTAR":0.00011218989,"MEAN_MOTION_DOT":2.962e-5,"MEAN_MOTION_DDOT":0},{"OBJECT_NAME":"STARLINK-30533","OBJECT_ID":"2023-156K","EPOCH":"2026-01-11T13:09:06.657408","MEAN_MOTION":15.30224017,"ECCENTRICITY":0.00013862,"INCLINATION":53.1597,"RA_OF_ASC_NODE":73.6221,"ARG_OF_PERICENTER":82.5836,"MEAN_ANOMALY":277.5322,"EPHEMERIS_TYPE":0,"CLASSIFICATION_TYPE":"U","NORAD_CAT_ID":58037,"ELEMENT_SET_NO":999,"REV_AT_EPOCH":12628,"BSTAR":0.00076036734,"MEAN_MOTION_DOT":0.00022245,"MEAN_MOTION_DDOT":0},{"OBJECT_NAME":"STARLINK-30560","OBJECT_ID":"2023-156L","EPOCH":"2026-01-11T04:44:57.791040","MEAN_MOTION":15.30199719,"ECCENTRICITY":0.00012319,"INCLINATION":53.162,"RA_OF_ASC_NODE":342.5789,"ARG_OF_PERICENTER":89.3309,"MEAN_ANOMALY":270.7833,"EPHEMERIS_TYPE":0,"CLASSIFICATION_TYPE":"U","NORAD_CAT_ID":58038,"ELEMENT_SET_NO":999,"REV_AT_EPOCH":12750,"BSTAR":6.2520789e-5,"MEAN_MOTION_DOT":1.493e-5,"MEAN_MOTION_DDOT":0},{"OBJECT_NAME":"STARLINK-30559","OBJECT_ID":"2023-156M","EPOCH":"2026-01-11T16:00:00.999936","MEAN_MOTION":15.45445934,"ECCENTRICITY":0.00065832,"INCLINATION":53.1549,"RA_OF_ASC_NODE":80.2039,"ARG_OF_PERICENTER":344.8423,"MEAN_ANOMALY":267.9757,"EPHEMERIS_TYPE":0,"CLASSIFICATION_TYPE":"U","NORAD_CAT_ID":58039,"ELEMENT_SET_NO":999,"REV_AT_EPOCH":578,"BSTAR":0.0044176217,"MEAN_MOTION_DOT":0.00220774,"MEAN_MOTION_DDOT":0},{"OBJECT_NAME":"STARLINK-30555","OBJECT_ID":"2023-156N","EPOCH":"2026-01-11T14:32:31.327296","MEAN_MOTION":15.3020497,"ECCENTRICITY":0.00014165,"INCLINATION":53.1603,"RA_OF_ASC_NODE":73.288,"ARG_OF_PERICENTER":108.8711,"MEAN_ANOMALY":251.2444,"EPHEMERIS_TYPE":0,"CLASSIFICATION_TYPE":"U","NORAD_CAT_ID":58040,"ELEMENT_SET_NO":999,"REV_AT_EPOCH":12629,"BSTAR":0.00012701478,"MEAN_MOTION_DOT":3.405e-5,"MEAN_MOTION_DDOT":0},{"OBJECT_NAME":"STARLINK-30542","OBJECT_ID":"2023-156P","EPOCH":"2026-01-11T07:11:30.415776","MEAN_MOTION":15.30189443,"ECCENTRICITY":0.00014777,"INCLINATION":53.1619,"RA_OF_ASC_NODE":344.8073,"ARG_OF_PERICENTER":96.4863,"MEAN_ANOMALY":263.6306,"EPHEMERIS_TYPE":0,"CLASSIFICATION_TYPE":"U","NORAD_CAT_ID":58041,"ELEMENT_SET_NO":999,"REV_AT_EPOCH":12752,"BSTAR":3.3488177e-5,"MEAN_MOTION_DOT":6.32e-6,"MEAN_MOTION_DDOT":0},{"OBJECT_NAME":"STARLINK-30563","OBJECT_ID":"2023-156Q","EPOCH":"2026-01-11T04:01:01.832448","MEAN_MOTION":15.30212635,"ECCENTRICITY":0.00010192,"INCLINATION":53.1623,"RA_OF_ASC_NODE":342.9434,"ARG_OF_PERICENTER":56.1145,"MEAN_ANOMALY":303.9953,"EPHEMERIS_TYPE":0,"CLASSIFICATION_TYPE":"U","NORAD_CAT_ID":58042,"ELEMENT_SET_NO":999,"REV_AT_EPOCH":12754,"BSTAR":0.0003823452,"MEAN_MOTION_DOT":0.00010986,"MEAN_MOTION_DDOT":0},{"OBJECT_NAME":"STARLINK-30564","OBJECT_ID":"2023-156R","EPOCH":"2026-01-11T14:46:38.328096","MEAN_MOTION":15.30191975,"ECCENTRICITY":0.00010587,"INCLINATION":53.1589,"RA_OF_ASC_NODE":343.5933,"ARG_OF_PERICENTER":101.3066,"MEAN_ANOMALY":258.8054,"EPHEMERIS_TYPE":0,"CLASSIFICATION_TYPE":"U","NORAD_CAT_ID":58043,"ELEMENT_SET_NO":999,"REV_AT_EPOCH":12757,"BSTAR":-0.0019878495,"MEAN_MOTION_DOT":-0.00058758,"MEAN_MOTION_DDOT":0},{"OBJECT_NAME":"STARLINK-30547","OBJECT_ID":"2023-156S","EPOCH":"2026-01-11T13:13:45.056352","MEAN_MOTION":15.30126781,"ECCENTRICITY":0.00014126,"INCLINATION":53.161,"RA_OF_ASC_NODE":73.614,"ARG_OF_PERICENTER":72.4478,"MEAN_ANOMALY":287.6677,"EPHEMERIS_TYPE":0,"CLASSIFICATION_TYPE":"U","NORAD_CAT_ID":58044,"ELEMENT_SET_NO":999,"REV_AT_EPOCH":12628,"BSTAR":-0.00021663386,"MEAN_MOTION_DOT":-6.755e-5,"MEAN_MOTION_DDOT":0},{"OBJECT_NAME":"STARLINK-30550","OBJECT_ID":"2023-156T","EPOCH":"2026-01-11T03:13:03.357696","MEAN_MOTION":15.30194592,"ECCENTRICITY":0.00011019,"INCLINATION":53.1593,"RA_OF_ASC_NODE":268.692,"ARG_OF_PERICENTER":72.6567,"MEAN_ANOMALY":287.4554,"EPHEMERIS_TYPE":0,"CLASSIFICATION_TYPE":"U","NORAD_CAT_ID":58045,"ELEMENT_SET_NO":999,"REV_AT_EPOCH":12856,"BSTAR":6.6532472e-5,"MEAN_MOTION_DOT":1.612e-5,"MEAN_MOTION_DDOT":0},{"OBJECT_NAME":"STARLINK-30548","OBJECT_ID":"2023-156U","EPOCH":"2026-01-11T11:32:01.257504","MEAN_MOTION":15.30204024,"ECCENTRICITY":0.00011485,"INCLINATION":53.1603,"RA_OF_ASC_NODE":73.9314,"ARG_OF_PERICENTER":100.2782,"MEAN_ANOMALY":259.8349,"EPHEMERIS_TYPE":0,"CLASSIFICATION_TYPE":"U","NORAD_CAT_ID":58046,"ELEMENT_SET_NO":999,"REV_AT_EPOCH":12622,"BSTAR":0.00015660844,"MEAN_MOTION_DOT":4.282e-5,"MEAN_MOTION_DDOT":0},{"OBJECT_NAME":"STARLINK-30529","OBJECT_ID":"2023-156V","EPOCH":"2026-01-11T10:37:29.816544","MEAN_MOTION":15.30203901,"ECCENTRICITY":0.00012701,"INCLINATION":53.1607,"RA_OF_ASC_NODE":74.3923,"ARG_OF_PERICENTER":104.108,"MEAN_ANOMALY":256.0062,"EPHEMERIS_TYPE":0,"CLASSIFICATION_TYPE":"U","NORAD_CAT_ID":58047,"ELEMENT_SET_NO":999,"REV_AT_EPOCH":12621,"BSTAR":-0.00017511153,"MEAN_MOTION_DOT":-5.542e-5,"MEAN_MOTION_DDOT":0},{"OBJECT_NAME":"STARLINK-30554","OBJECT_ID":"2023-156W","EPOCH":"2026-01-11T11:10:45.004224","MEAN_MOTION":15.30192505,"ECCENTRICITY":0.0001394,"INCLINATION":53.1614,"RA_OF_ASC_NODE":73.8402,"ARG_OF_PERICENTER":106.9529,"MEAN_ANOMALY":253.1625,"EPHEMERIS_TYPE":0,"CLASSIFICATION_TYPE":"U","NORAD_CAT_ID":58048,"ELEMENT_SET_NO":999,"REV_AT_EPOCH":12622,"BSTAR":7.1339131e-5,"MEAN_MOTION_DOT":1.754e-5,"MEAN_MOTION_DDOT":0},{"OBJECT_NAME":"STARLINK-30568","OBJECT_ID":"2023-158A","EPOCH":"2026-01-11T14:56:51.645408","MEAN_MOTION":15.02545812,"ECCENTRICITY":0.0001188,"INCLINATION":43.0051,"RA_OF_ASC_NODE":340.7052,"ARG_OF_PERICENTER":267.9524,"MEAN_ANOMALY":92.1183,"EPHEMERIS_TYPE":0,"CLASSIFICATION_TYPE":"U","NORAD_CAT_ID":58051,"ELEMENT_SET_NO":999,"REV_AT_EPOCH":12494,"BSTAR":0.00011357508,"MEAN_MOTION_DOT":1.331e-5,"MEAN_MOTION_DDOT":0},{"OBJECT_NAME":"STARLINK-30575","OBJECT_ID":"2023-158B","EPOCH":"2026-01-11T07:07:49.709568","MEAN_MOTION":15.02532776,"ECCENTRICITY":0.00011094,"INCLINATION":43.0047,"RA_OF_ASC_NODE":342.5639,"ARG_OF_PERICENTER":275.5965,"MEAN_ANOMALY":84.4751,"EPHEMERIS_TYPE":0,"CLASSIFICATION_TYPE":"U","NORAD_CAT_ID":58052,"ELEMENT_SET_NO":999,"REV_AT_EPOCH":12489,"BSTAR":-1.3874e-7,"MEAN_MOTION_DOT":-2.05e-6,"MEAN_MOTION_DDOT":0},{"OBJECT_NAME":"STARLINK-30577","OBJECT_ID":"2023-158C","EPOCH":"2026-01-11T14:52:04.644480","MEAN_MOTION":15.02536717,"ECCENTRICITY":8.954e-5,"INCLINATION":43.0052,"RA_OF_ASC_NODE":340.6648,"ARG_OF_PERICENTER":273.1915,"MEAN_ANOMALY":86.8825,"EPHEMERIS_TYPE":0,"CLASSIFICATION_TYPE":"U","NORAD_CAT_ID":58053,"ELEMENT_SET_NO":999,"REV_AT_EPOCH":12494,"BSTAR":6.0848226e-5,"MEAN_MOTION_DOT":6.18e-6,"MEAN_MOTION_DDOT":0},{"OBJECT_NAME":"STARLINK-30566","OBJECT_ID":"2023-158D","EPOCH":"2026-01-11T09:55:18.490944","MEAN_MOTION":15.0254096,"ECCENTRICITY":0.00012696,"INCLINATION":43.0004,"RA_OF_ASC_NODE":341.7176,"ARG_OF_PERICENTER":247.5073,"MEAN_ANOMALY":112.5635,"EPHEMERIS_TYPE":0,"CLASSIFICATION_TYPE":"U","NORAD_CAT_ID":58054,"ELEMENT_SET_NO":999,"REV_AT_EPOCH":12491,"BSTAR":0.0037523706,"MEAN_MOTION_DOT":0.00050861,"MEAN_MOTION_DDOT":0},{"OBJECT_NAME":"STARLINK-30544","OBJECT_ID":"2023-158E","EPOCH":"2026-01-11T04:44:08.912832","MEAN_MOTION":15.02539366,"ECCENTRICITY":8.46e-6,"INCLINATION":43.0053,"RA_OF_ASC_NODE":342.6737,"ARG_OF_PERICENTER":132.13,"MEAN_ANOMALY":227.955,"EPHEMERIS_TYPE":0,"CLASSIFICATION_TYPE":"U","NORAD_CAT_ID":58055,"ELEMENT_SET_NO":999,"REV_AT_EPOCH":12488,"BSTAR":0.00010850598,"MEAN_MOTION_DOT":1.263e-5,"MEAN_MOTION_DDOT":0},{"OBJECT_NAME":"STARLINK-30553","OBJECT_ID":"2023-158F","EPOCH":"2026-01-11T08:09:59.228640","MEAN_MOTION":15.02534469,"ECCENTRICITY":0.00010838,"INCLINATION":43.0058,"RA_OF_ASC_NODE":342.0267,"ARG_OF_PERICENTER":281.4556,"MEAN_ANOMALY":78.6165,"EPHEMERIS_TYPE":0,"CLASSIFICATION_TYPE":"U","NORAD_CAT_ID":58056,"ELEMENT_SET_NO":999,"REV_AT_EPOCH":12490,"BSTAR":9.811946e-5,"MEAN_MOTION_DOT":1.122e-5,"MEAN_MOTION_DDOT":0},{"OBJECT_NAME":"STARLINK-30541","OBJECT_ID":"2023-158G","EPOCH":"2026-01-11T08:14:48.062976","MEAN_MOTION":15.02525221,"ECCENTRICITY":0.00012327,"INCLINATION":43.0059,"RA_OF_ASC_NODE":342.0544,"ARG_OF_PERICENTER":270.8016,"MEAN_ANOMALY":89.2685,"EPHEMERIS_TYPE":0,"CLASSIFICATION_TYPE":"U","NORAD_CAT_ID":58057,"ELEMENT_SET_NO":999,"REV_AT_EPOCH":12490,"BSTAR":-7.2595729e-5,"MEAN_MOTION_DOT":-1.184e-5,"MEAN_MOTION_DDOT":0},{"OBJECT_NAME":"STARLINK-30573","OBJECT_ID":"2023-158H","EPOCH":"2026-01-11T14:28:05.898720","MEAN_MOTION":15.02541601,"ECCENTRICITY":0.00011853,"INCLINATION":43.0058,"RA_OF_ASC_NODE":340.5586,"ARG_OF_PERICENTER":268.2125,"MEAN_ANOMALY":91.8581,"EPHEMERIS_TYPE":0,"CLASSIFICATION_TYPE":"U","NORAD_CAT_ID":58058,"ELEMENT_SET_NO":999,"REV_AT_EPOCH":12494,"BSTAR":0.0001479551,"MEAN_MOTION_DOT":1.796e-5,"MEAN_MOTION_DDOT":0},{"OBJECT_NAME":"STARLINK-30582","OBJECT_ID":"2023-158J","EPOCH":"2026-01-11T09:26:31.941600","MEAN_MOTION":15.02538823,"ECCENTRICITY":0.00010427,"INCLINATION":43.0042,"RA_OF_ASC_NODE":341.5701,"ARG_OF_PERICENTER":266.3583,"MEAN_ANOMALY":93.714,"EPHEMERIS_TYPE":0,"CLASSIFICATION_TYPE":"U","NORAD_CAT_ID":58059,"ELEMENT_SET_NO":999,"REV_AT_EPOCH":12491,"BSTAR":0.00013655522,"MEAN_MOTION_DOT":1.642e-5,"MEAN_MOTION_DDOT":0},{"OBJECT_NAME":"STARLINK-30558","OBJECT_ID":"2023-158K","EPOCH":"2026-01-11T15:11:14.631936","MEAN_MOTION":15.02545183,"ECCENTRICITY":0.00011448,"INCLINATION":43.0048,"RA_OF_ASC_NODE":340.7686,"ARG_OF_PERICENTER":270.6999,"MEAN_ANOMALY":89.3712,"EPHEMERIS_TYPE":0,"CLASSIFICATION_TYPE":"U","NORAD_CAT_ID":58060,"ELEMENT_SET_NO":999,"REV_AT_EPOCH":12494,"BSTAR":0.00016458724,"MEAN_MOTION_DOT":2.021e-5,"MEAN_MOTION_DDOT":0}]
